[{"OBJECT_NAME":"STARLINK-5338","OBJECT_ID":"2023-010T","EPOCH":"2026-03-09T22:19:02.839008","MEAN_MOTION":14.98334815,"ECCENTRICITY":0.00027101,"INCLINATION":70.002,"RA_OF_ASC_NODE":23.9157,"ARG_OF_PERICENTER":265.6845,"MEAN_ANOMALY":94.4004,"EPHEMERIS_TYPE":0,"CLASSIFICATION_TYPE":"U","NORAD_CAT_ID":55286,"ELEMENT_SET_NO":999,"REV_AT_EPOCH":17330,"BSTAR":-8.1875883e-5,"MEAN_MOTION_DOT":-1.07e-5,"MEAN_MOTION_DDOT":0},{"OBJECT_NAME":"HAWK-8B","OBJECT_ID":"2024-066D","EPOCH":"2026-03-09T11:23:00.219840","MEAN_MOTION":14.98769819,"ECCENTRICITY":0.00042801,"INCLINATION":45.6192,"RA_OF_ASC_NODE":73.7012,"ARG_OF_PERICENTER":258.0487,"MEAN_ANOMALY":101.9914,"EPHEMERIS_TYPE":0,"CLASSIFICATION_TYPE":"U","NORAD_CAT_ID":59445,"ELEMENT_SET_NO":999,"REV_AT_EPOCH":10486,"BSTAR":0.00021132759,"MEAN_MOTION_DOT":2.353e-5,"MEAN_MOTION_DDOT":0}]
